Orbit 1
Satellite Number: 99999
Line 1: 1 99999U 20042A   26027.13434208  .00000000  00000-0  10000-4 0  9990
Line 2: 2 99999  97.6020 244.5384 0002214  88.6496 271.9396 15.06633386  1000
Keplerian Elements:
  Semi-major axis (a): 6921.623315 km
  Eccentricity (e): 0.000221
  Inclination (i): 97.602000 deg
  Argument of Perigee (ω): 88.649600 deg
  RAAN (Ω): 244.538400 deg
--------------------------------------------------
Orbit 2
Satellite Number: 64860
Line 1: 1 64860U 25152U   26027.15058631  .00004531  00000-0  31797-3 0  9998
Line 2: 2 64860  97.6014 244.5281 0002306  70.7975 289.3501 15.05653619 29162
Keplerian Elements:
  Semi-major axis (a): 6924.628292 km
  Eccentricity (e): 0.000231
  Inclination (i): 97.601400 deg
  Argument of Perigee (ω): 70.797500 deg
  RAAN (Ω): 244.528100 deg
--------------------------------------------------
Orbit 3
Satellite Number: 64845
Line 1: 1 64845U 25152D   26027.15335179  .00006725  00000-0  46978-3 0  9990
Line 2: 2 64845  97.6032 244.5089 0002031 100.2135 259.9321 15.05652247 29162
Keplerian Elements:
  Semi-major axis (a): 6924.632581 km
  Eccentricity (e): 0.000203
  Inclination (i): 97.603200 deg
  Argument of Perigee (ω): 100.213500 deg
  RAAN (Ω): 244.508900 deg
--------------------------------------------------
Orbit 4
Satellite Number: 64846
Line 1: 1 64846U 25152E   26027.11735808  .00008470  00000-0  59037-3 0  9999
Line 2: 2 64846  97.6044 244.5494 0002198 115.1294 245.0161 15.05657713 29162
Keplerian Elements:
  Semi-major axis (a): 6924.615859 km
  Eccentricity (e): 0.000220
  Inclination (i): 97.604400 deg
  Argument of Perigee (ω): 115.129400 deg
  RAAN (Ω): 244.549400 deg
--------------------------------------------------
